{
  "norad_id": 59439,
  "name": "STARLINK-31708",
  "history": [
    {
      "epoch": "2026-03-28T16:49:33.368160",
      "apogee_km": 475.8189511180117,
      "perigee_km": 474.5972738182618,
      "latitude_deg": 17.63640665081492,
      "longitude_deg": -168.79625760018826,
      "semi_major_axis_km": 6853.345112468136,
      "eccentricity": 8.913e-05,
      "inclination_deg": 53.1607,
      "raan_deg": 193.1146,
      "arg_perigee_deg": 60.609,
      "mean_anomaly_deg": 299.5,
      "mean_motion_rev_day": 15.3020233
    }
  ]
}